{
  "type": "FeatureCollection",
  "features": [
    {
      "type": "Feature",
      "properties": {
        "norad_id": 35996,
        "name": "COSMOS 2251 DEB",
        "group": "cosmos-2251-debris",
        "lat": 15.623091235253671,
        "lon": 79.6651210778283,
        "alt_km": 588.4199879233101,
        "timestamp": "2025-12-26T11:25:45.587224+00:00",
        "meta_object_name": "COSMOS 2251 DEB",
        "meta_object_id": "1993-036AWN",
        "meta_epoch": "2025-12-15T22:25:06.327264",
        "meta_mean_motion": 15.09228347,
        "meta_eccentricity": 0.00876626,
        "meta_inclination": 74.0159,
        "meta_ra_of_asc_node": 96.8248,
        "meta_arg_of_pericenter": 187.0066,
        "meta_mean_anomaly": 172.9909,
        "meta_ephemeris_type": 0,
        "meta_classification_type": "U",
        "meta_norad_cat_id": 35996,
        "meta_element_set_no": 999,
        "meta_rev_at_epoch": 72374,
        "meta_bstar": 0.00054952121,
        "meta_mean_motion_dot": 9.536e-05,
        "meta_mean_motion_ddot": 0,
        "tle_line1": "1 35996U 93036AWN 25349.93410101  .00009536  00000+0  54952-3 0  9995",
        "tle_line2": "2 35996  74.0159  96.8248 0087662 187.0066 172.9909 15.09228347723745"
      },
      "geometry": {
        "type": "Point",
        "coordinates": [
          79.6651210778283,
          15.623091235253671
        ]
      }
    },
    {
      "type": "Feature",
      "properties": {
        "norad_id": 35997,
        "name": "COSMOS 2251 DEB",
        "group": "cosmos-2251-debris",
        "lat": 52.162708816590225,
        "lon": -40.15325111776303,
        "alt_km": 719.8666536954788,
        "timestamp": "2025-12-26T11:25:45.587233+00:00",
        "meta_object_name": "COSMOS 2251 DEB",
        "meta_object_id": "1993-036AWP",
        "meta_epoch": "2025-12-23T05:06:13.780800",
        "meta_mean_motion": 14.51360271,
        "meta_eccentricity": 0.0015396,
        "meta_inclination": 74.0436,
        "meta_ra_of_asc_node": 167.5974,
        "meta_arg_of_pericenter": 242.7596,
        "meta_mean_anomaly": 117.1997,
        "meta_ephemeris_type": 0,
        "meta_classification_type": "U",
        "meta_norad_cat_id": 35997,
        "meta_element_set_no": 999,
        "meta_rev_at_epoch": 71036,
        "meta_bstar": 0.00062809556,
        "meta_mean_motion_dot": 2.48e-05,
        "meta_mean_motion_ddot": 0,
        "tle_line1": "1 35997U 93036AWP 25357.21265950  .00002480  00000+0  62810-3 0  9999",
        "tle_line2": "2 35997  74.0436 167.5974 0015396 242.7596 117.1997 14.51360271710369"
      },
      "geometry": {
        "type": "Point",
        "coordinates": [
          -40.15325111776303,
          52.162708816590225
        ]
      }
    },
    {
      "type": "Feature",
      "properties": {
        "norad_id": 36005,
        "name": "COSMOS 2251 DEB",
        "group": "cosmos-2251-debris",
        "lat": -37.72436702861154,
        "lon": 55.50472630897175,
        "alt_km": 760.4923875675058,
        "timestamp": "2025-12-26T11:25:45.587242+00:00",
        "meta_object_name": "COSMOS 2251 DEB",
        "meta_object_id": "1993-036AWX",
        "meta_epoch": "2025-12-25T12:23:21.312096",
        "meta_mean_motion": 14.47376705,
        "meta_eccentricity": 0.0061491,
        "meta_inclination": 74.027,
        "meta_ra_of_asc_node": 70.1013,
        "meta_arg_of_pericenter": 204.7491,
        "meta_mean_anomaly": 155.0716,
        "meta_ephemeris_type": 0,
        "meta_classification_type": "U",
        "meta_norad_cat_id": 36005,
        "meta_element_set_no": 999,
        "meta_rev_at_epoch": 87769,
        "meta_bstar": 0.00018917,
        "meta_mean_motion_dot": 6.81e-06,
        "meta_mean_motion_ddot": 0,
        "tle_line1": "1 36005U 93036AWX 25359.51621889  .00000681  00000+0  18917-3 0  9992",
        "tle_line2": "2 36005  74.0270  70.1013 0061491 204.7491 155.0716 14.47376705877692"
      },
      "geometry": {
        "type": "Point",
        "coordinates": [
          55.50472630897175,
          -37.72436702861154
        ]
      }
    },
    {
      "type": "Feature",
      "properties": {
        "norad_id": 36045,
        "name": "COSMOS 2251 DEB",
        "group": "cosmos-2251-debris",
        "lat": 51.44837691364106,
        "lon": 53.46015450628529,
        "alt_km": 622.4763134110108,
        "timestamp": "2025-12-26T11:25:45.587251+00:00",
        "meta_object_name": "COSMOS 2251 DEB",
        "meta_object_id": "1993-036AXG",
        "meta_epoch": "2025-12-25T18:51:09.820512",
        "meta_mean_motion": 14.70126783,
        "meta_eccentricity": 0.00481863,
        "meta_inclination": 73.7639,
        "meta_ra_of_asc_node": 33.3725,
        "meta_arg_of_pericenter": 42.7479,
        "meta_mean_anomaly": 317.7422,
        "meta_ephemeris_type": 0,
        "meta_classification_type": "U",
        "meta_norad_cat_id": 36045,
        "meta_element_set_no": 999,
        "meta_rev_at_epoch": 8580,
        "meta_bstar": 0.0019792392,
        "meta_mean_motion_dot": 0.00012107,
        "meta_mean_motion_ddot": 0,
        "tle_line1": "1 36045U 93036AXG 25359.78553033  .00012107  00000+0  19792-2 0  9997",
        "tle_line2": "2 36045  73.7639  33.3725 0048186  42.7479 317.7422 14.70126783 85804"
      },
      "geometry": {
        "type": "Point",
        "coordinates": [
          53.46015450628529,
          51.44837691364106
        ]
      }
    },
    {
      "type": "Feature",
      "properties": {
        "norad_id": 36046,
        "name": "COSMOS 2251 DEB",
        "group": "cosmos-2251-debris",
        "lat": -58.605422729697096,
        "lon": 98.04700091548887,
        "alt_km": 716.7422596904698,
        "timestamp": "2025-12-26T11:25:45.587259+00:00",
        "meta_object_name": "COSMOS 2251 DEB",
        "meta_object_id": "1993-036AXH",
        "meta_epoch": "2025-12-21T00:56:56.522112",
        "meta_mean_motion": 14.65315014,
        "meta_eccentricity": 0.00558701,
        "meta_inclination": 74.0169,
        "meta_ra_of_asc_node": 260.5061,
        "meta_arg_of_pericenter": 44.1197,
        "meta_mean_anomaly": 331.1837,
        "meta_ephemeris_type": 0,
        "meta_classification_type": "U",
        "meta_norad_cat_id": 36046,
        "meta_element_set_no": 999,
        "meta_rev_at_epoch": 64125,
        "meta_bstar": 0.00034570915,
        "meta_mean_motion_dot": 1.877e-05,
        "meta_mean_motion_ddot": 0,
        "tle_line1": "1 36046U 93036AXH 25355.03954308  .00001877  00000+0  34571-3 0  9997",
        "tle_line2": "2 36046  74.0169 260.5061 0055870  44.1197 331.1837 14.65315014641253"
      },
      "geometry": {
        "type": "Point",
        "coordinates": [
          98.04700091548887,
          -58.605422729697096
        ]
      }
    },
    {
      "type": "Feature",
      "properties": {
        "norad_id": 36047,
        "name": "COSMOS 2251 DEB",
        "group": "cosmos-2251-debris",
        "lat": -73.43662528393689,
        "lon": -159.3404655726128,
        "alt_km": 581.9452617232419,
        "timestamp": "2025-12-26T11:25:45.587268+00:00",
        "meta_object_name": "COSMOS 2251 DEB",
        "meta_object_id": "1993-036AXJ",
        "meta_epoch": "2025-12-21T21:08:53.075040",
        "meta_mean_motion": 14.96393257,
        "meta_eccentricity": 0.000841,
        "meta_inclination": 74.036,
        "meta_ra_of_asc_node": 315.6865,
        "meta_arg_of_pericenter": 344.906,
        "meta_mean_anomaly": 15.1873,
        "meta_ephemeris_type": 0,
        "meta_classification_type": "U",
        "meta_norad_cat_id": 36047,
        "meta_element_set_no": 999,
        "meta_rev_at_epoch": 66076,
        "meta_bstar": 0.0028311075,
        "meta_mean_motion_dot": 0.00032218,
        "meta_mean_motion_ddot": 0,
        "tle_line1": "1 36047U 93036AXJ 25355.88116985  .00032218  00000+0  28311-2 0  9999",
        "tle_line2": "2 36047  74.0360 315.6865 0008410 344.9060  15.1873 14.96393257660764"
      },
      "geometry": {
        "type": "Point",
        "coordinates": [
          -159.3404655726128,
          -73.43662528393689
        ]
      }
    },
    {
      "type": "Feature",
      "properties": {
        "norad_id": 36048,
        "name": "COSMOS 2251 DEB",
        "group": "cosmos-2251-debris",
        "lat": -7.561076543065577,
        "lon": 96.19809685453062,
        "alt_km": 782.4332131659221,
        "timestamp": "2025-12-26T11:25:45.587277+00:00",
        "meta_object_name": "COSMOS 2251 DEB",
        "meta_object_id": "1993-036AXK",
        "meta_epoch": "2025-12-25T19:47:51.613152",
        "meta_mean_motion": 14.37873513,
        "meta_eccentricity": 0.00271039,
        "meta_inclination": 74.0571,
        "meta_ra_of_asc_node": 275.2209,
        "meta_arg_of_pericenter": 322.8373,
        "meta_mean_anomaly": 95.0442,
        "meta_ephemeris_type": 0,
        "meta_classification_type": "U",
        "meta_norad_cat_id": 36048,
        "meta_element_set_no": 999,
        "meta_rev_at_epoch": 85690,
        "meta_bstar": 0.00026808417,
        "meta_mean_motion_dot": 7.86e-06,
        "meta_mean_motion_ddot": 0,
        "tle_line1": "1 36048U 93036AXK 25359.82490293  .00000786  00000+0  26808-3 0  9990",
        "tle_line2": "2 36048  74.0571 275.2209 0027103 322.8373  95.0442 14.37873513856909"
      },
      "geometry": {
        "type": "Point",
        "coordinates": [
          96.19809685453062,
          -7.561076543065577
        ]
      }
    }
  ]
}